[{"OBJECT_NAME":"THEA","OBJECT_ID":"2018-099AQ","EPOCH":"2026-03-09T22:33:02.658240","MEAN_MOTION":15.31454284,"ECCENTRICITY":0.00065849,"INCLINATION":97.4542,"RA_OF_ASC_NODE":137.8815,"ARG_OF_PERICENTER":275.4664,"MEAN_ANOMALY":84.5826,"EPHEMERIS_TYPE":0,"CLASSIFICATION_TYPE":"U","NORAD_CAT_ID":43796,"ELEMENT_SET_NO":999,"REV_AT_EPOCH":39748,"BSTAR":0.00074635274,"MEAN_MOTION_DOT":0.00022649,"MEAN_MOTION_DDOT":0},{"OBJECT_NAME":"STARLINK-36121","OBJECT_ID":"2025-286R","EPOCH":"2026-03-09T04:53:25.731456","MEAN_MOTION":15.30198288,"ECCENTRICITY":0.00010019,"INCLINATION":53.1624,"RA_OF_ASC_NODE":0.6176,"ARG_OF_PERICENTER":112.7165,"MEAN_ANOMALY":247.3942,"EPHEMERIS_TYPE":0,"CLASSIFICATION_TYPE":"U","NORAD_CAT_ID":66940,"ELEMENT_SET_NO":999,"REV_AT_EPOCH":1534,"BSTAR":0.00061351436,"MEAN_MOTION_DOT":0.00017854,"MEAN_MOTION_DDOT":0}]
